NOAA 1 [-]              
1 04793U 70106A   22184.94196150 -.00000034  00000+0  65486-4 0  9999
2 04793 101.5555 248.3345 0031069 290.3426 243.0889 12.54005945359658
NOAA 2 (ITOS-D) [-]     
1 06235U 72082A   22184.90666410 -.00000023  00000+0  14508-3 0  9990
2 06235 101.9527 167.2424 0004483  46.9038   7.9508 12.53148576274035
NOAA 3 [-]              
1 06920U 73086A   22184.91890118 -.00000054  00000+0 -60164-4 0  9996
2 06920 102.2076 166.5012 0006008 261.5997 154.3838 12.40347689202832
NOAA 4 [-]              
1 07529U 74089A   22184.88574456 -.00000031  00000+0  91481-4 0  9996
2 07529 101.9130 164.5705 0009497  72.7322 341.4450 12.53158512178606
NOAA 5 [-]              
1 09057U 76077A   22184.88387929 -.00000031  00000+0  10516-3 0  9999
2 09057 102.0983 152.6976 0010255 106.8103 309.6511 12.37772092 75775
TIROS N [-]             
1 11060U 78096A   22184.85383895  .00000038  00000+0  39333-4 0  9999
2 11060  98.6342 238.1621 0011805  96.2818 263.9703 14.18395034473938
NOAA 6 [-]              
1 11416U 79057A   22184.87229775  .00000076  00000+0  43573-4 0  9993
2 11416  98.6628 195.7526 0009741 204.3952 155.6773 14.33767874243873
NOAA 7 [-]              
1 12553U 81059A   22184.89088377 -.00000006  00000+0  19848-4 0  9996
2 12553  98.9976 229.5110 0012503  71.2690 288.9840 14.17334939120121
NOAA 8 [-]              
1 13923U 83022A   22184.88311430  .00000031  00000+0  29706-4 0  9999
2 13923  98.6865 175.3627 0015476 157.3685 202.8182 14.28813891 44759
NOAA 9 [-]              
1 15427U 84123A   22184.91157913  .00000032  00000+0  39285-4 0  9995
2 15427  99.0457 157.5547 0015772 116.7691 297.7463 14.16206668938943
NOAA 10 [-]             
1 16969U 86073A   22184.91695059  .00000037  00000+0  32460-4 0  9994
2 16969  98.5676 170.7683 0010978 264.2520 163.3612 14.28205440863180
NOAA 11 [-]             
1 19531U 88089A   22184.88535025 -.00000014  00000+0  13855-4 0  9996
2 19531  98.4240 173.0649 0012094 127.5817 232.6458 14.15312930743143
NOAA 12 [-]             
1 21263U 91032A   22184.91123666  .00000033  00000+0  31534-4 0  9995
2 21263  98.5133 184.2720 0012513 293.5598  66.4268 14.25997797619077
NOAA 13 [-]             
1 22739U 93050A   22184.87644659  .00000054  00000+0  51433-4 0  9994
2 22739  98.5047 163.8583 0008469 300.9035  59.1305 14.12847558489378
NOAA 14 [-]             
1 23455U 94089A   22184.82763094 -.00000008  00000+0  17399-4 0  9996
2 23455  98.4465 210.6445 0008269 278.5966  81.4271 14.14200149419022
NOAA 15 [B]             
1 25338U 98030A   22185.11772344  .00000101  00000+0  60434-4 0  9990
2 25338  98.6426 214.4346 0009273 246.1898 113.8310 14.26145638255640
NOAA 16 [-]             
1 26536U 00055A   22184.89239098  .00000011  00000+0  28398-4 0  9992
2 26536  98.6353 243.2263 0011607 116.5156 243.7209 14.13332690419676
NOAA 17 [-]             
1 27453U 02032A   22185.14246942  .00000045  00000+0  38083-4 0  9992
2 27453  98.6722 130.2085 0010995 219.3827 140.6554 14.25126268 41245
NOAA 18 [B]             
1 28654U 05018A   22185.13300533  .00000115  00000+0  86400-4 0  9993
2 28654  98.9485 255.5555 0013140 285.1604  74.8114 14.12748852882428
NOAA 19 [+]             
1 33591U 09005A   22185.13620893  .00000089  00000+0  73200-4 0  9997
2 33591  99.1463 219.6226 0014656 138.3890 221.8399 14.12583562690801
SUOMI NPP [+]           
1 37849U 11061A   22185.10641315  .00000019  00000+0  29606-4 0  9995
2 37849  98.7330 123.4279 0001081  87.7600 282.8852 14.19531491553555
NOAA 20 [+]             
1 43013U 17073A   22185.13969695  .00000027  00000+0  33538-4 0  9999
2 43013  98.7169 123.4334 0001409  68.5596 291.5730 14.19559798239599
CELESTIS-02             
1 25160U 98007D   22184.87419625 -.00000056  00000+0  32492-4 0  9992
2 25160 107.9834 299.8080 0060837  81.9354  27.8353 14.21631505265197
CELESTIS-03             
1 26034U 99070C   22184.90909582  .00010298  00000+0  49058-3 0  9997
2 26034  98.3110 192.5101 0012039  77.0417 283.2158 15.19293443223578
O3B FM5                 
1 39188U 13031A   22184.46571746 -.00000016  00000+0  00000+0 0  9990
2 39188   0.0483  26.7282 0002416 107.1487 226.1424  4.99968346164767
O3B FM4                 
1 39189U 13031B   22184.51870828 -.00000016  00000+0  00000+0 0  9990
2 39189   0.0579 358.1918 0002195 145.8594 215.9629  4.99927679164783
O3B FM2                 
1 39190U 13031C   22184.77729777 -.00000016  00000+0  00000+0 0  9996
2 39190   0.0617 354.8139 0001220  84.6050 280.5942  4.99476752164856
O3B PFM                 
1 39191U 13031D   22184.24242519 -.00000017  00000+0  00000+0 0  9994
2 39191   0.0484  16.1460 0002655  85.8748 258.0082  5.00115730164386
O3B FM3                 
1 40079U 14038A   22184.49704438 -.00000016  00000+0  00000+0 0  9998
2 40079   0.0546   5.3044 0005062  99.1266 255.6246  5.00115408140772
O3B FM7                 
1 40080U 14038B   22184.24322622 -.00000017  00000+0  00000+0 0  9995
2 40080   0.0588   4.2953 0000805 114.4487 241.2633  5.00115471145599
O3B FM6                 
1 40081U 14038C   22184.66938111 -.00000016  00000+0  00000+0 0  9997
2 40081   0.0542   4.2507 0002685  99.1786 256.6001  5.00115471145560
O3B FM8                 
1 40082U 14038D   22184.32356469 -.00000016  00000+0  00000+0 0  9991
2 40082   0.0549   1.0121 0002726  98.9122 260.1058  5.00115641145664
O3B FM10                
1 40348U 14083A   22184.74932500 -.00000016  00000+0  00000+0 0  9998
2 40348   0.0469  10.1648 0002641  92.0615 257.8027  5.00115144137627
O3B FM11                
1 40349U 14083B   22184.76281778 -.00000016  00000+0  00000+0 0  9995
2 40349   0.0507  13.3179 0002127 101.2140 245.4897  5.00115359137659
O3B FM12                
1 40350U 14083C   22184.39022578 -.00000016  00000+0  00000+0 0  9997
2 40350   0.0506  12.3734 0002657  93.3985 254.2566  5.00115201137648
O3B FM9                 
1 40351U 14083D   22184.81697164 -.00000015  00000+0  00000+0 0  9993
2 40351   0.0515  14.2567 0002578  88.9717 256.7997  5.00115619137805
DIAMOND RED             
1 42783U 17036U   22184.82759194  .00005008  00000+0  18755-3 0  9994
2 42783  97.1977 225.0622 0008481 270.6903  89.3365 15.27694023279442
DIAMOND GREEN           
1 42785U 17036W   22184.82620800  .00003373  00000+0  12735-3 0  9992
2 42785  97.1981 225.1259 0008285 272.2491  87.7800 15.27651055279510
DIAMOND BLUE            
1 42786U 17036X   22184.69430163  .00002070  00000+0  79205-4 0  9998
2 42786  97.1981 224.9904 0008314 273.2309  86.7980 15.27634416279494
LEO VANTAGE 1           
1 43113U 18004C   22184.79967816  .00001805  00000+0  14958-3 0  9998
2 43113  99.2468 266.5574 0402377 142.1383 220.8852 14.53854465226611
O3B FM15                
1 43231U 18024A   22184.68306022 -.00000016  00000+0  00000+0 0  9998
2 43231   0.0438   8.0386 0002863  97.8300 254.1624  5.00115999 78762
O3B FM16                
1 43232U 18024B   22184.53653951 -.00000016  00000+0  00000+0 0  9999
2 43232   0.0399   6.2744 0002834  99.8006 253.9556  5.00115885 78675
O3B FM14                
1 43233U 18024C   22184.77597689 -.00000016  00000+0  00000+0 0  9991
2 43233   0.0388   4.6495 0002637 101.5728 253.8061  5.00115300 78696
O3B FM13                
1 43234U 18024D   22183.43021659 -.00000018  00000+0  00000+0 0  9995
2 43234   0.0451  43.7276 0003203  76.4388 239.8645  5.00115622 78735
O3B FM20                
1 44112U 19020A   22184.60282155 -.00000016  00000+0  00000+0 0  9996
2 44112   0.0470   9.3804 0002797 103.6831 246.9654  5.00115448 59307
O3B FM19                
1 44113U 19020B   22182.23086430 -.00000020  00000+0  00000+0 0  9997
2 44113   0.0504  27.0826 0001744  68.0065 264.9298  5.00115177 59056
O3B FM17                
1 44114U 19020C   22184.11047519 -.00000017  00000+0  00000+0 0  9998
2 44114   0.0474 345.4003 0002952 121.3242 253.3071  5.00115532 59235
O3B FM18                
1 44115U 19020D   22184.25691527 -.00000016  00000+0  00000+0 0  9997
2 44115   0.0471   9.9484 0002885  93.0426 257.0405  5.00115753 59363
SALSAT                  
1 46495U 20068K   22184.78990563  .00001600  00000+0  11830-3 0  9990
2 46495  97.7298 126.0955 0015526 218.7419 141.2695 15.04564330 96645
ISS (ZARYA)             
1 25544U 98067A   22185.43189815  .00006146  00000+0  11628-3 0  9994
2 25544  51.6429 251.1821 0004421 330.5365 207.3929 15.49822456347850
SIMPL                   
1 42983U 98067NF  22185.14797351  .00244397  38296-4  33794-3 0  9991
2 42983  51.6255  92.1302 0001459  94.5158 265.6021 16.05553511267616
AEROCUBE 12A            
1 43556U 18046C   22185.18538721  .00013921  00000+0  35517-3 0  9994
2 43556  51.6368 102.2706 0008196  94.9676 265.2244 15.39752752221890
AEROCUBE 12B            
1 43557U 18046D   22185.14365548  .00009853  00000+0  27169-3 0  9999
2 43557  51.6376 107.1717 0008304  91.3584 268.8351 15.37721831221773
LEMUR-2-VU              
1 43558U 18046E   22184.89855428  .00020041  00000+0  38972-3 0  9998
2 43558  51.6381  85.0408 0008713  99.7951 260.4021 15.47549033222096
LEMUR-2-ALEXANDER       
1 43559U 18046F   22184.91702534  .00031443  00000+0  58841-3 0  9996
2 43559  51.6379  82.9430 0008952 102.4853 257.7138 15.48382403221907
LEMUR-2-YUASA           
1 43560U 18046G   22184.67391629  .00028911  00000+0  55676-3 0  9999
2 43560  51.6383  86.5424 0008957 105.8042 254.3934 15.47601200222051
LEMUR-2-TOMHENDERSON    
1 43561U 18046H   22185.13052090  .00025420  00000+0  52302-3 0  9993
2 43561  51.6391  87.2994 0008279 111.0911 249.0962 15.45755701221642
ISS DEB (SEDA-AP)       
1 43870U 98067PU  22184.71514839  .00065902  00000+0  24967-3 0  9999
2 43870  51.6290 145.6866 0004845  30.9956 329.1333 15.87013276201519
ISS DEB                 
1 44303U 98067QA  22184.66821471  .00453263  11312-3  49464-3 0  9990
2 44303  51.6203 166.5246 0004062  25.9805 334.1412 16.09183705176501
